[{"OBJECT_NAME":"SAUDISAT 5B","OBJECT_ID":"2018-102C","EPOCH":"2026-03-09T22:59:17.457216","MEAN_MOTION":15.27248504,"ECCENTRICITY":0.00120577,"INCLINATION":97.3281,"RA_OF_ASC_NODE":135.3629,"ARG_OF_PERICENTER":124.0958,"MEAN_ANOMALY":236.1427,"EPHEMERIS_TYPE":0,"CLASSIFICATION_TYPE":"U","NORAD_CAT_ID":43833,"ELEMENT_SET_NO":999,"REV_AT_EPOCH":40064,"BSTAR":0.00024926623,"MEAN_MOTION_DOT":6.596e-5,"MEAN_MOTION_DDOT":0},{"OBJECT_NAME":"STARLINK-2525","OBJECT_ID":"2021-040BG","EPOCH":"2026-03-09T21:41:38.769216","MEAN_MOTION":15.30214878,"ECCENTRICITY":0.00011336,"INCLINATION":53.1603,"RA_OF_ASC_NODE":192.9438,"ARG_OF_PERICENTER":85.7988,"MEAN_ANOMALY":274.3142,"EPHEMERIS_TYPE":0,"CLASSIFICATION_TYPE":"U","NORAD_CAT_ID":48482,"ELEMENT_SET_NO":999,"REV_AT_EPOCH":26649,"BSTAR":0.00016690381,"MEAN_MOTION_DOT":4.589e-5,"MEAN_MOTION_DDOT":0}]
